CELESTIS-17 & SHERPA-FX1
1 47486U 21006CB  26068.64311433  .00007207  00000+0  24301-3 0  9993
2 47486  97.2397 112.1052 0006630 178.1385 181.9882 15.30994801284065
STARLINK-31277          
1 59651U 24082W   26068.51271539 -.00002532  00000+0 -82603-4 0  9993
2 59651  43.0003 140.9135 0000619 200.5160 159.5667 15.27558795104986
